[{"OBJECT_NAME":"STARLINK-3732","OBJECT_ID":"2022-029AQ","EPOCH":"2026-03-09T05:36:16.832160","MEAN_MOTION":15.08837305,"ECCENTRICITY":0.00013239,"INCLINATION":53.2172,"RA_OF_ASC_NODE":71.1684,"ARG_OF_PERICENTER":89.5387,"MEAN_ANOMALY":270.5757,"EPHEMERIS_TYPE":0,"CLASSIFICATION_TYPE":"U","NORAD_CAT_ID":52126,"ELEMENT_SET_NO":999,"REV_AT_EPOCH":22085,"BSTAR":-1.4412665e-5,"MEAN_MOTION_DOT":-5.17e-6,"MEAN_MOTION_DDOT":0},{"OBJECT_NAME":"UNISAT","OBJECT_ID":"2000-057C","EPOCH":"2026-03-09T10:21:07.624800","MEAN_MOTION":15.08907267,"ECCENTRICITY":0.00363457,"INCLINATION":64.544,"RA_OF_ASC_NODE":74.146,"ARG_OF_PERICENTER":312.3548,"MEAN_ANOMALY":47.4494,"EPHEMERIS_TYPE":0,"CLASSIFICATION_TYPE":"U","NORAD_CAT_ID":26547,"ELEMENT_SET_NO":999,"REV_AT_EPOCH":38146,"BSTAR":0.00046170414,"MEAN_MOTION_DOT":7.242e-5,"MEAN_MOTION_DDOT":0}]
